FLYING LAPTOP           
1 42831U 17042G   26062.17605742  .00002715  00000+0  21952-3 0  9996
2 42831  97.4247 222.1410 0018419 116.4688 243.8429 15.00460179470558
HAWK-A                  
1 43765U 18099H   26062.10681500  .00008793  00000+0  36968-3 0  9990
2 43765  97.4067 115.7610 0034515 299.7650  60.0155 15.23100254396948
HAWK-B                  
1 43794U 18099AN  26062.13722161  .00007866  00000+0  34877-3 0  9991
2 43794  97.4118 115.4183 0031786 317.5166  42.3610 15.21414722396908
HAWK-C                  
1 43799U 18099AT  26062.11675977  .00009749  00000+0  37013-3 0  9993
2 43799  97.4045 116.1843 0040666 301.5332  58.1937 15.26254441397721
SALSAT                  
1 46495U 20068K   26061.92839164  .00011638  00000+0  42811-3 0  9998
2 46495  97.8846  58.6665 0008827 325.0587  35.0071 15.28017587299126
HAWK-2C                 
1 47502U 21006CT  26062.08425720  .00008520  00000+0  26810-3 0  9995
2 47502  97.2428 108.5378 0006237 208.7329 151.3571 15.33166463283232
HAWK-2A                 
1 47505U 21006CW  26062.08784526  .00012497  00000+0  39176-3 0  9997
2 47505  97.2471 109.1559 0005786 211.7478 148.3417 15.33187043283230
HAWK-2B                 
1 47508U 21006CZ  26062.08459733  .00008487  00000+0  26713-3 0  9996
2 47508  97.2344 107.6629 0006386 210.1446 149.9430 15.33157814283233
HAWK-3B                 
1 48931U 21059BE  26062.07656690  .00039685  00000+0  47324-3 0  9990
2 48931  97.6713 249.4151 0005463   3.5004 356.6290 15.60958739261256
HAWK-3C                 
1 48948U 21059BX  26062.07633611  .00041187  00000+0  49115-3 0  9996
2 48948  97.6862 254.9011 0005984   5.1349 354.9967 15.60947705261256
HAWK-3A                 
1 48957U 21059CG  26062.07616457  .00040804  00000+0  48662-3 0  9996
2 48957  97.6797 252.1950 0005580   3.7118 356.4179 15.60950664261255
HAWK-5C                 
1 52754U 22057Y   26061.93406440  .00023459  00000+0  46287-3 0  9996
2 52754  97.6441 215.1844 0005661  98.0337 262.1555 15.47168698209898
HAWK-5B                 
1 52756U 22057AA  26062.12796380  .00024490  00000+0  48289-3 0  9995
2 52756  97.6443 213.7294 0005634  92.1274 268.0620 15.47179165209923
HAWK-5A                 
1 52757U 22057AB  26061.93365479  .00023855  00000+0  47061-3 0  9996
2 52757  97.6442 214.3580 0006040  95.0797 265.1142 15.47167991209899
HAWK-6B                 
1 55324U 23011A   26061.71708272  .00007470  00000+0  33045-3 0  9990
2 55324  40.5117 252.5747 0003124 340.1039  19.9648 15.21791377171617
HAWK-6C                 
1 55326U 23011C   26061.91335455  .00007550  00000+0  33389-3 0  9993
2 55326  40.4815 248.3154 0003453 329.1041  30.9564 15.21787358171651
HAWK-6A                 
1 55327U 23011D   26061.91337227  .00007501  00000+0  33178-3 0  9995
2 55327  40.4969 249.9151 0003160 327.8274  32.2342 15.21790776171651
