[{"OBJECT_NAME":"FLYING LAPTOP","OBJECT_ID":"2017-042G","EPOCH":"2026-03-03T04:13:31.361088","MEAN_MOTION":15.00460179,"ECCENTRICITY":0.0018419,"INCLINATION":97.4247,"RA_OF_ASC_NODE":222.141,"ARG_OF_PERICENTER":116.4688,"MEAN_ANOMALY":243.8429,"EPHEMERIS_TYPE":0,"CLASSIFICATION_TYPE":"U","NORAD_CAT_ID":42831,"ELEMENT_SET_NO":999,"REV_AT_EPOCH":47055,"BSTAR":0.00021952,"MEAN_MOTION_DOT":2.715e-5,"MEAN_MOTION_DDOT":0},{"OBJECT_NAME":"HAWK-A","OBJECT_ID":"2018-099H","EPOCH":"2026-03-03T02:33:48.816000","MEAN_MOTION":15.23100254,"ECCENTRICITY":0.0034515,"INCLINATION":97.4067,"RA_OF_ASC_NODE":115.761,"ARG_OF_PERICENTER":299.765,"MEAN_ANOMALY":60.0155,"EPHEMERIS_TYPE":0,"CLASSIFICATION_TYPE":"U","NORAD_CAT_ID":43765,"ELEMENT_SET_NO":999,"REV_AT_EPOCH":39694,"BSTAR":0.00036968,"MEAN_MOTION_DOT":8.793e-5,"MEAN_MOTION_DDOT":0},{"OBJECT_NAME":"HAWK-B","OBJECT_ID":"2018-099AN","EPOCH":"2026-03-03T03:17:35.947104","MEAN_MOTION":15.21414722,"ECCENTRICITY":0.0031786,"INCLINATION":97.4118,"RA_OF_ASC_NODE":115.4183,"ARG_OF_PERICENTER":317.5166,"MEAN_ANOMALY":42.361,"EPHEMERIS_TYPE":0,"CLASSIFICATION_TYPE":"U","NORAD_CAT_ID":43794,"ELEMENT_SET_NO":999,"REV_AT_EPOCH":39690,"BSTAR":0.00034877,"MEAN_MOTION_DOT":7.866e-5,"MEAN_MOTION_DDOT":0},{"OBJECT_NAME":"HAWK-C","OBJECT_ID":"2018-099AT","EPOCH":"2026-03-03T02:48:08.044128","MEAN_MOTION":15.26254441,"ECCENTRICITY":0.0040666,"INCLINATION":97.4045,"RA_OF_ASC_NODE":116.1843,"ARG_OF_PERICENTER":301.5332,"MEAN_ANOMALY":58.1937,"EPHEMERIS_TYPE":0,"CLASSIFICATION_TYPE":"U","NORAD_CAT_ID":43799,"ELEMENT_SET_NO":999,"REV_AT_EPOCH":39772,"BSTAR":0.00037013,"MEAN_MOTION_DOT":9.749e-5,"MEAN_MOTION_DDOT":0},{"OBJECT_NAME":"SALSAT","OBJECT_ID":"2020-068K","EPOCH":"2026-03-02T22:16:53.037696","MEAN_MOTION":15.28017587,"ECCENTRICITY":0.0008827,"INCLINATION":97.8846,"RA_OF_ASC_NODE":58.6665,"ARG_OF_PERICENTER":325.0587,"MEAN_ANOMALY":35.0071,"EPHEMERIS_TYPE":0,"CLASSIFICATION_TYPE":"U","NORAD_CAT_ID":46495,"ELEMENT_SET_NO":999,"REV_AT_EPOCH":29912,"BSTAR":0.00042811,"MEAN_MOTION_DOT":0.00011638,"MEAN_MOTION_DDOT":0},{"OBJECT_NAME":"HAWK-2C","OBJECT_ID":"2021-006CT","EPOCH":"2026-03-03T02:01:19.822080","MEAN_MOTION":15.33166463,"ECCENTRICITY":0.0006237,"INCLINATION":97.2428,"RA_OF_ASC_NODE":108.5378,"ARG_OF_PERICENTER":208.7329,"MEAN_ANOMALY":151.3571,"EPHEMERIS_TYPE":0,"CLASSIFICATION_TYPE":"U","NORAD_CAT_ID":47502,"ELEMENT_SET_NO":999,"REV_AT_EPOCH":28323,"BSTAR":0.0002681,"MEAN_MOTION_DOT":8.52e-5,"MEAN_MOTION_DDOT":0},{"OBJECT_NAME":"HAWK-2A","OBJECT_ID":"2021-006CW","EPOCH":"2026-03-03T02:06:29.830464","MEAN_MOTION":15.33187043,"ECCENTRICITY":0.0005786,"INCLINATION":97.2471,"RA_OF_ASC_NODE":109.1559,"ARG_OF_PERICENTER":211.7478,"MEAN_ANOMALY":148.3417,"EPHEMERIS_TYPE":0,"CLASSIFICATION_TYPE":"U","NORAD_CAT_ID":47505,"ELEMENT_SET_NO":999,"REV_AT_EPOCH":28323,"BSTAR":0.00039176,"MEAN_MOTION_DOT":0.00012497,"MEAN_MOTION_DDOT":0},{"OBJECT_NAME":"HAWK-2B","OBJECT_ID":"2021-006CZ","EPOCH":"2026-03-03T02:01:49.209312","MEAN_MOTION":15.33157814,"ECCENTRICITY":0.0006386,"INCLINATION":97.2344,"RA_OF_ASC_NODE":107.6629,"ARG_OF_PERICENTER":210.1446,"MEAN_ANOMALY":149.943,"EPHEMERIS_TYPE":0,"CLASSIFICATION_TYPE":"U","NORAD_CAT_ID":47508,"ELEMENT_SET_NO":999,"REV_AT_EPOCH":28323,"BSTAR":0.00026713,"MEAN_MOTION_DOT":8.487e-5,"MEAN_MOTION_DDOT":0},{"OBJECT_NAME":"HAWK-3B","OBJECT_ID":"2021-059BE","EPOCH":"2026-03-03T01:50:15.380160","MEAN_MOTION":15.60958739,"ECCENTRICITY":0.0005463,"INCLINATION":97.6713,"RA_OF_ASC_NODE":249.4151,"ARG_OF_PERICENTER":3.5004,"MEAN_ANOMALY":356.629,"EPHEMERIS_TYPE":0,"CLASSIFICATION_TYPE":"U","NORAD_CAT_ID":48931,"ELEMENT_SET_NO":999,"REV_AT_EPOCH":26125,"BSTAR":0.00047324,"MEAN_MOTION_DOT":0.00039685,"MEAN_MOTION_DDOT":0},{"OBJECT_NAME":"HAWK-3C","OBJECT_ID":"2021-059BX","EPOCH":"2026-03-03T01:49:55.439904","MEAN_MOTION":15.60947705,"ECCENTRICITY":0.0005984,"INCLINATION":97.6862,"RA_OF_ASC_NODE":254.9011,"ARG_OF_PERICENTER":5.1349,"MEAN_ANOMALY":354.9967,"EPHEMERIS_TYPE":0,"CLASSIFICATION_TYPE":"U","NORAD_CAT_ID":48948,"ELEMENT_SET_NO":999,"REV_AT_EPOCH":26125,"BSTAR":0.00049115,"MEAN_MOTION_DOT":0.00041187,"MEAN_MOTION_DDOT":0},{"OBJECT_NAME":"HAWK-3A","OBJECT_ID":"2021-059CG","EPOCH":"2026-03-03T01:49:40.618848","MEAN_MOTION":15.60950664,"ECCENTRICITY":0.000558,"INCLINATION":97.6797,"RA_OF_ASC_NODE":252.195,"ARG_OF_PERICENTER":3.7118,"MEAN_ANOMALY":356.4179,"EPHEMERIS_TYPE":0,"CLASSIFICATION_TYPE":"U","NORAD_CAT_ID":48957,"ELEMENT_SET_NO":999,"REV_AT_EPOCH":26125,"BSTAR":0.00048662,"MEAN_MOTION_DOT":0.00040804,"MEAN_MOTION_DDOT":0},{"OBJECT_NAME":"HAWK-5C","OBJECT_ID":"2022-057Y","EPOCH":"2026-03-02T22:25:03.164160","MEAN_MOTION":15.47168698,"ECCENTRICITY":0.0005661,"INCLINATION":97.6441,"RA_OF_ASC_NODE":215.1844,"ARG_OF_PERICENTER":98.0337,"MEAN_ANOMALY":262.1555,"EPHEMERIS_TYPE":0,"CLASSIFICATION_TYPE":"U","NORAD_CAT_ID":52754,"ELEMENT_SET_NO":999,"REV_AT_EPOCH":20989,"BSTAR":0.00046287,"MEAN_MOTION_DOT":0.00023459,"MEAN_MOTION_DDOT":0},{"OBJECT_NAME":"HAWK-5B","OBJECT_ID":"2022-057AA","EPOCH":"2026-03-03T03:04:16.072320","MEAN_MOTION":15.47179165,"ECCENTRICITY":0.0005634,"INCLINATION":97.6443,"RA_OF_ASC_NODE":213.7294,"ARG_OF_PERICENTER":92.1274,"MEAN_ANOMALY":268.062,"EPHEMERIS_TYPE":0,"CLASSIFICATION_TYPE":"U","NORAD_CAT_ID":52756,"ELEMENT_SET_NO":999,"REV_AT_EPOCH":20992,"BSTAR":0.00048289,"MEAN_MOTION_DOT":0.0002449,"MEAN_MOTION_DDOT":0},{"OBJECT_NAME":"HAWK-5A","OBJECT_ID":"2022-057AB","EPOCH":"2026-03-02T22:24:27.773856","MEAN_MOTION":15.47167991,"ECCENTRICITY":0.000604,"INCLINATION":97.6442,"RA_OF_ASC_NODE":214.358,"ARG_OF_PERICENTER":95.0797,"MEAN_ANOMALY":265.1142,"EPHEMERIS_TYPE":0,"CLASSIFICATION_TYPE":"U","NORAD_CAT_ID":52757,"ELEMENT_SET_NO":999,"REV_AT_EPOCH":20989,"BSTAR":0.00047061,"MEAN_MOTION_DOT":0.00023855,"MEAN_MOTION_DDOT":0},{"OBJECT_NAME":"HAWK-6B","OBJECT_ID":"2023-011A","EPOCH":"2026-03-02T17:12:35.947008","MEAN_MOTION":15.21791377,"ECCENTRICITY":0.00031242,"INCLINATION":40.5117,"RA_OF_ASC_NODE":252.5747,"ARG_OF_PERICENTER":340.1039,"MEAN_ANOMALY":19.9648,"EPHEMERIS_TYPE":0,"CLASSIFICATION_TYPE":"U","NORAD_CAT_ID":55324,"ELEMENT_SET_NO":999,"REV_AT_EPOCH":17161,"BSTAR":0.00033045318,"MEAN_MOTION_DOT":7.47e-5,"MEAN_MOTION_DDOT":0},{"OBJECT_NAME":"HAWK-6C","OBJECT_ID":"2023-011C","EPOCH":"2026-03-02T21:55:13.833120","MEAN_MOTION":15.21787358,"ECCENTRICITY":0.0003453,"INCLINATION":40.4815,"RA_OF_ASC_NODE":248.3154,"ARG_OF_PERICENTER":329.1041,"MEAN_ANOMALY":30.9564,"EPHEMERIS_TYPE":0,"CLASSIFICATION_TYPE":"U","NORAD_CAT_ID":55326,"ELEMENT_SET_NO":999,"REV_AT_EPOCH":17165,"BSTAR":0.00033389,"MEAN_MOTION_DOT":7.55e-5,"MEAN_MOTION_DDOT":0},{"OBJECT_NAME":"HAWK-6A","OBJECT_ID":"2023-011D","EPOCH":"2026-03-02T21:55:15.364128","MEAN_MOTION":15.21790776,"ECCENTRICITY":0.000316,"INCLINATION":40.4969,"RA_OF_ASC_NODE":249.9151,"ARG_OF_PERICENTER":327.8274,"MEAN_ANOMALY":32.2342,"EPHEMERIS_TYPE":0,"CLASSIFICATION_TYPE":"U","NORAD_CAT_ID":55327,"ELEMENT_SET_NO":999,"REV_AT_EPOCH":17165,"BSTAR":0.00033178,"MEAN_MOTION_DOT":7.501e-5,"MEAN_MOTION_DDOT":0}]
